GLOBALSTAR M063         
1 26081U 00008A   25084.97561883 -.00000046  00000+0  53524-3 0  9993
2 26081  51.9976 330.7244 0004862 147.9883 225.6549 11.86167348147706
GLOBALSTAR M062         
1 26082U 00008B   25085.19151701 -.00000034  00000+0  46233-3 0  9999
2 26082  51.9872 339.8491 0006464 299.0720 226.5354 12.43461871148791
GLOBALSTAR M064         
1 26084U 00008D   25085.22133344 -.00000049  00000+0  49270-3 0  9998
2 26084  52.0026  69.8768 0001323 258.9552 101.1132 11.88531991157341
GLOBALSTAR M065         
1 31571U 07020A   25085.14547432  .00000029  00000+0  74135-3 0  9999
2 31571  51.9872 119.0205 0010590 123.4035 302.2157 12.62002771823227
GLOBALSTAR M069         
1 31573U 07020C   25085.16982125 -.00000056  00000+0  30594-3 0  9997
2 31573  51.9937  86.2357 0000384   8.2358  70.4995 12.42143329823780
GLOBALSTAR M072         
1 31574U 07020D   25084.82484456 -.00000087  00000+0 -41462-4 0  9996
2 31574  52.0141 213.8915 0001828 159.5578   1.3251 11.91777080821524
GLOBALSTAR M071         
1 31576U 07020F   25085.18674515 -.00000007  00000+0  82638-3 0  9995
2 31576  52.0042 103.4048 0000596 291.5260 162.4125 12.18251394823732
